NORAD_CAT_ID,OBJECT_NAME,OBJECT_TYPE,EPOCH,MEAN_MOTION,ECCENTRICITY,INCLINATION,RA_OF_ASC_NODE,ARG_OF_PERICENTER,MEAN_ANOMALY,BSTAR,MEAN_MOTION_DOT,MEAN_MOTION_DDOT,TLE_LINE0,TLE_LINE1,TLE_LINE2,SEMIMAJOR_AXIS,PERIOD,APOGEE,PERIGEE,DECAYED
53175.0,STARLINK-4292,PAYLOAD,2023-06-07 23:11:35,15.08839644,0.0001169,53.2181,8.9871,86.0117,274.1008,8.0203e-05,9.89e-06,0.0,0 STARLINK-4292,1 53175U 22083AV  23158.96638066  .00000989  00000-0  80203-4 0  9992,2 53175  53.2181   8.9871 0001169  86.0117 274.1008 15.08839644 49380,6917.881,95.438,540.555,538.938,0.0
53175.0,STARLINK-4292,PAYLOAD,2023-06-08 21:26:59,15.08839426,0.0001201,53.2177,4.8253,81.2479,278.865,6.4136e-05,7.33e-06,0.0,0 STARLINK-4292,1 53175U 22083AV  23159.89374378  .00000733  00000-0  64136-4 0  9992,2 53175  53.2177   4.8253 0001201  81.2479 278.8650 15.08839426 50169,6917.882,95.438,540.578,538.916,0.0
53175.0,STARLINK-4292,PAYLOAD,2023-06-09 06:59:18,15.08843395,0.0001122,53.2179,3.0397,85.8465,274.2656,4.9526e-06,-2.09e-06,0.0,0 STARLINK-4292,1 53175U 22083AV  23160.29118249 -.00000209  00000-0  49526-5 0  9997,2 53175  53.2179   3.0397 0001122  85.8465 274.2656 15.08843395 49588,6917.87,95.437,540.511,538.959,0.0
53175.0,STARLINK-4292,PAYLOAD,2023-06-09 16:31:37,15.08839652,0.0001173,53.2178,1.2559,87.2686,272.844,1.9481e-05,2.2e-07,0.0,0 STARLINK-4292,1 53175U 22083AV  23160.68862538  .00000022  00000-0  19481-4 0  9995,2 53175  53.2178   1.2559 0001173  87.2686 272.8440 15.08839652 49647,6917.881,95.438,540.558,538.935,0.0
53175.0,STARLINK-4292,PAYLOAD,2023-06-10 08:25:28,15.08841756,0.0001169,53.2177,358.2815,89.5209,270.5917,7.6387e-05,9.28e-06,0.0,0 STARLINK-4292,1 53175U 22083AV  23161.35102155  .00000928  00000-0  76387-4 0  9995,2 53175  53.2177 358.2815 0001169  89.5209 270.5917 15.08841756 50382,6917.875,95.437,540.549,538.931,0.0
53175.0,STARLINK-4292,PAYLOAD,2023-06-10 19:33:09,15.08846447,0.0001124,53.218,356.1991,94.7918,265.3202,8.2632e-05,1.028e-05,0.0,0 STARLINK-4292,1 53175U 22083AV  23161.81469774  .00001028  00000-0  82632-4 0  9991,2 53175  53.2180 356.1991 0001124  94.7918 265.3202 15.08846447 49811,6917.861,95.437,540.503,538.948,0.0
53175.0,STARLINK-4292,PAYLOAD,2023-06-11 13:02:25,15.08835467,0.0001089,53.2178,352.9283,95.9105,264.2012,5.3414e-06,-2.03e-06,0.0,0 STARLINK-4292,1 53175U 22083AV  23162.54334641 -.00000203  00000-0  53414-5 0  9998,2 53175  53.2178 352.9283 0001089  95.9105 264.2012 15.08835467 49926,6917.894,95.438,540.513,539.006,0.0
53175.0,STARLINK-4292,PAYLOAD,2023-06-11 16:13:11,15.08842128,0.0001208,53.2176,352.3337,92.9066,267.2064,-5.0259e-05,-1.088e-05,0.0,0 STARLINK-4292,1 53175U 22083AV  23162.67582397 -.00001088  00000-0 -50259-4 0  9991,2 53175  53.2176 352.3337 0001208  92.9066 267.2064 15.08842128 49948,6917.874,95.437,540.575,538.903,0.0
53175.0,STARLINK-4292,PAYLOAD,2023-06-11 19:23:57,15.08840696,0.0001126,53.2177,351.7388,93.3991,266.713,6.4077e-06,-1.86e-06,0.0,0 STARLINK-4292,1 53175U 22083AV  23162.80830329 -.00000186  00000-0  64077-5 0  9998,2 53175  53.2177 351.7388 0001126  93.3991 266.7130 15.08840696 49967,6917.878,95.438,540.522,538.964,0.0
53175.0,STARLINK-4292,PAYLOAD,2023-06-12 19:14:44,15.08842972,0.0001048,53.2178,347.2792,87.4816,272.6296,4.6603e-05,4.54e-06,0.0,0 STARLINK-4292,1 53175U 22083AV  23163.80190037  .00000454  00000-0  46603-4 0  9995,2 53175  53.2178 347.2792 0001048  87.4816 272.6296 15.08842972 50757,6917.871,95.437,540.461,539.011,0.0
53175.0,STARLINK-4292,PAYLOAD,2023-06-12 22:25:30,15.08846999,0.0001097,53.2177,346.6841,85.7201,274.3917,4.8757e-05,4.88e-06,0.0,0 STARLINK-4292,1 53175U 22083AV  23163.93437775  .00000488  00000-0  48757-4 0  9991,2 53175  53.2177 346.6841 0001097  85.7201 274.3917 15.08846999 50131,6917.859,95.437,540.483,538.965,0.0
53175.0,STARLINK-4292,PAYLOAD,2023-06-13 12:43:59,15.08827936,9.99e-05,53.2182,344.0068,71.7374,288.3727,2.151e-05,5.5e-07,0.0,0 STARLINK-4292,1 53175U 22083AV  23164.53055170  .00000055  00000-0  21510-4 0  9991,2 53175  53.2182 344.0068 0000999  71.7374 288.3727 15.08827936 50860,6917.917,95.438,540.473,539.091,0.0
53175.0,STARLINK-4292,PAYLOAD,2023-06-13 19:05:31,15.08837593,0.000133,53.2178,342.8177,86.2638,273.8506,7.6524e-05,9.3e-06,0.0,0 STARLINK-4292,1 53175U 22083AV  23164.79550470  .00000930  00000-0  76524-4 0  9999,2 53175  53.2178 342.8177 0001330  86.2638 273.8506 15.08837593 50905,6917.888,95.438,540.673,538.833,0.0
53175.0,STARLINK-4292,PAYLOAD,2023-06-14 12:34:46,15.08837135,0.0001041,53.2184,339.5486,82.987,277.124,-6.334e-05,-1.296e-05,0.0,0 STARLINK-4292,1 53175U 22083AV  23165.52415214 -.00001296  00000-0 -63340-4 0  9997,2 53175  53.2184 339.5486 0001041  82.9870 277.1240 15.08837135 50373,6917.889,95.438,540.474,539.034,0.0
53175.0,STARLINK-4292,PAYLOAD,2023-06-14 20:31:42,15.08840988,0.0001035,53.2182,338.0612,85.4409,274.6701,-1.558e-05,-5.36e-06,0.0,0 STARLINK-4292,1 53175U 22083AV  23165.85534804 -.00000536  00000-0 -15580-4 0  9999,2 53175  53.2182 338.0612 0001035  85.4409 274.6701 15.08840988 50425,6917.877,95.437,540.458,539.026,0.0
53175.0,STARLINK-4292,PAYLOAD,2023-06-15 12:25:33,15.0883155,0.0001089,53.2187,335.0874,85.543,274.5687,7.3685e-05,8.85e-06,0.0,0 STARLINK-4292,1 53175U 22083AV  23166.51775371  .00000885  00000-0  73685-4 0  9994,2 53175  53.2187 335.0874 0001089  85.5430 274.5687 15.08831550 50529,6917.906,95.438,540.525,539.018,0.0
53175.0,STARLINK-4292,PAYLOAD,2023-06-15 17:11:43,15.08837758,0.0001178,53.2189,334.1955,90.1175,269.9952,4.7922e-05,4.75e-06,0.0,0 STARLINK-4292,1 53175U 22083AV  23166.71647157  .00000475  00000-0  47922-4 0  9996,2 53175  53.2189 334.1955 0001178  90.1175 269.9952 15.08837758 51191,6917.887,95.438,540.567,538.937,0.0
53175.0,STARLINK-4292,PAYLOAD,2023-06-16 10:40:57,15.08835075,0.0001105,53.2186,330.9245,86.0652,274.0466,0.000243,3.581e-05,0.0,0 STARLINK-4292,1 53175U 22083AV  23167.44510706  .00003581  00000-0  24300-3 0  9991,2 53175  53.2186 330.9245 0001105  86.0652 274.0466 15.08835075 50666,6917.895,95.438,540.525,538.996,0.0
53175.0,STARLINK-4292,PAYLOAD,2023-06-16 20:13:14,15.08853472,0.0001056,53.2178,329.1403,85.9324,274.1788,0.00022125,3.236e-05,0.0,0 STARLINK-4292,1 53175U 22083AV  23167.84253366  .00003236  00000-0  22125-3 0  9991,2 53175  53.2178 329.1403 0001056  85.9324 274.1788 15.08853472 50728,6917.839,95.437,540.435,538.974,0.0
53175.0,STARLINK-4292,PAYLOAD,2023-06-17 10:31:45,15.08828704,0.0001358,53.2174,326.4641,94.7703,265.3444,8.2345e-07,-2.75e-06,0.0,0 STARLINK-4292,1 53175U 22083AV  23168.43871744 -.00000275  00000-0  82345-6 0  9997,2 53175  53.2174 326.4641 0001358  94.7703 265.3444 15.08828704 51454,6917.915,95.438,540.719,538.84,0.0
53175.0,STARLINK-4292,PAYLOAD,2023-06-17 16:53:17,15.08828302,0.0001344,53.2174,325.2747,95.7796,264.3349,-3.6308e-06,-3.46e-06,0.0,0 STARLINK-4292,1 53175U 22083AV  23168.70367958 -.00000346  00000-0 -36308-5 0  9991,2 53175  53.2174 325.2747 0001344  95.7796 264.3349 15.08828302 50856,6917.916,95.438,540.711,538.851,0.0
53175.0,STARLINK-4292,PAYLOAD,2023-06-18 04:00:59,15.08836084,0.0001163,53.2195,323.1926,102.6871,257.4251,-1.566e-05,-5.37e-06,0.0,0 STARLINK-4292,1 53175U 22083AV  23169.16735673 -.00000537  00000-0 -15660-4 0  9994,2 53175  53.2195 323.1926 0001163 102.6871 257.4251 15.08836084 51566,6917.892,95.438,540.562,538.953,0.0
53175.0,STARLINK-4292,PAYLOAD,2023-06-18 10:22:31,15.08847326,8.83e-05,53.2176,322.0045,93.8941,266.2152,3.0256e-05,1.94e-06,0.0,0 STARLINK-4292,1 53175U 22083AV  23169.43230765  .00000194  00000-0  30256-4 0  9991,2 53175  53.2176 322.0045 0000883  93.8941 266.2152 15.08847326 50964,6917.858,95.437,540.334,539.112,0.0
53175.0,STARLINK-4292,PAYLOAD,2023-06-18 16:44:03,15.08851797,9.55e-05,53.2181,320.8144,98.641,261.4691,9.3333e-05,1.198e-05,0.0,0 STARLINK-4292,1 53175U 22083AV  23169.69726283  .00001198  00000-0  93333-4 0  9994,2 53175  53.2181 320.8144 0000955  98.6410 261.4691 15.08851797 51648,6917.844,95.437,540.37,539.049,0.0
53175.0,STARLINK-4292,PAYLOAD,2023-06-19 10:13:18,15.08839841,9.61e-05,53.2172,317.5433,104.8451,255.2648,0.00031518,4.732e-05,0.0,0 STARLINK-4292,1 53175U 22083AV  23170.42591131  .00004732  00000-0  31518-3 0  9992,2 53175  53.2172 317.5433 0000961 104.8451 255.2648 15.08839841 51755,6917.881,95.438,540.411,539.081,0.0
53175.0,STARLINK-4292,PAYLOAD,2023-06-19 16:34:51,15.08844689,0.0001007,53.2177,316.3585,88.1985,271.9123,0.00028539,4.258e-05,0.0,0 STARLINK-4292,1 53175U 22083AV  23170.69086829  .00004258  00000-0  28539-3 0  9996,2 53175  53.2177 316.3585 0001007  88.1985 271.9123 15.08844689 51156,6917.866,95.437,540.428,539.034,0.0
53175.0,STARLINK-4292,PAYLOAD,2023-06-20 02:07:11,15.08824815,0.000216,53.217,314.5661,96.1577,263.9661,-6.5697e-05,-1.333e-05,0.0,0 STARLINK-4292,1 53175U 22083AV  23171.08832223 -.00001333  00000-0 -65697-4 0  9997,2 53175  53.2170 314.5661 0002160  96.1577 263.9661 15.08824815 51855,6917.927,95.439,541.286,538.298,0.0
53175.0,STARLINK-4292,PAYLOAD,2023-06-20 10:04:06,15.08830529,6.3e-05,53.2176,313.0835,83.7154,276.391,-0.00015039,-2.68e-05,0.0,0 STARLINK-4292,1 53175U 22083AV  23171.41951476 -.00002680  00000-0 -15039-3 0  9996,2 53175  53.2176 313.0835 0000630  83.7154 276.3910 15.08830529 51260,6917.909,95.438,540.21,539.339,0.0
53175.0,STARLINK-4292,PAYLOAD,2023-06-20 19:36:24,15.08842197,0.0001008,53.2163,311.2968,103.7953,256.3151,-3.2888e-05,-8.11e-06,0.0,0 STARLINK-4292,1 53175U 22083AV  23171.81694850 -.00000811  00000-0 -32888-4 0  9996,2 53175  53.2163 311.2968 0001008 103.7953 256.3151 15.08842197 51329,6917.874,95.437,540.436,539.041,0.0
53175.0,STARLINK-4292,PAYLOAD,2023-06-21 01:57:56,15.08842447,8.63e-05,53.2159,310.1086,93.7816,266.3275,4.6354e-05,4.5e-06,0.0,0 STARLINK-4292,1 53175U 22083AV  23172.08190878  .00000450  00000-0  46354-4 0  9997,2 53175  53.2159 310.1086 0000863  93.7816 266.3275 15.08842447 52009,6917.873,95.437,540.335,539.141,0.0
